start=new Date('2023-03-18T00:00:00.000Z').valueOf();
sats=[{"MEAN_MOTION_DOT":"0.00021556","REF_FRAME":"TEME","MEAN_ELEMENT_THEORY":"SGP4","MEAN_MOTION_DDOT":"0.0000000000000","TLE_LINE2":"2 47144  53.0530 126.6356 0001149  78.9337 281.1781 15.06387849128357","NORAD_CAT_ID":"47144","INCLINATION":"53.0530","RCS_SIZE":"LARGE","MEAN_ANOMALY":"281.1781","APOAPSIS":"548.047","OBJECT_TYPE":"PAYLOAD","FILE":"3863391","BSTAR":"0.00146210000000","ECCENTRICITY":"0.00011490","PERIOD":"95.593","CENTER_NAME":"EARTH","CLASSIFICATION_TYPE":"U","MEAN_MOTION":"15.06387849","TIME_SYSTEM":"UTC","GP_ID":"228330282","LAUNCH_DATE":"2020-11-25","EPOCH":"2023-03-17T12:18:40.473216","SEMIMAJOR_AXIS":"6925.386","ELEMENT_SET_NO":"999","PERIAPSIS":"546.455","RA_OF_ASC_NODE":"126.6356","ARG_OF_PERICENTER":"78.9337","OBJECT_ID":"2020-088Y","REV_AT_EPOCH":"12835","SITE":"AFETR","TLE_LINE1":"1 47144U 20088Y   23076.51296844  .00021556  00000-0  14621-2 0  9990","OBJECT_NAME":"STARLINK-1857","DECAY_DATE":null,"COUNTRY_CODE":"US","EPHEMERIS_TYPE":"0"},{"RCS_SIZE":"LARGE","APOAPSIS":"548.289","MEAN_ANOMALY":"274.5891","MEAN_ELEMENT_THEORY":"SGP4","MEAN_MOTION_DDOT":"0.0000000000000","MEAN_MOTION_DOT":"-0.00001385","REF_FRAME":"TEME","INCLINATION":"53.0546","NORAD_CAT_ID":"47147","TLE_LINE2":"2 47147  53.0546 146.8190 0001476  85.5267 274.5891 15.06382708127824","ECCENTRICITY":"0.00014760","PERIOD":"95.593","CENTER_NAME":"EARTH","BSTAR":"-0.00007413400000","LAUNCH_DATE":"2020-11-25","GP_ID":"228320575","MEAN_MOTION":"15.06382708","CLASSIFICATION_TYPE":"U","TIME_SYSTEM":"UTC","OBJECT_TYPE":"PAYLOAD","FILE":"3863278","PERIAPSIS":"546.244","RA_OF_ASC_NODE":"146.8190","ARG_OF_PERICENTER":"85.5267","EPOCH":"2023-03-17T11:17:34.244736","ELEMENT_SET_NO":"999","SEMIMAJOR_AXIS":"6925.402","DECAY_DATE":null,"COUNTRY_CODE":"US","EPHEMERIS_TYPE":"0","OBJECT_NAME":"STARLINK-1860","OBJECT_ID":"2020-088AB","REV_AT_EPOCH":"12782","TLE_LINE1":"1 47147U 20088AB  23076.47053524 -.00001385  00000-0 -74134-4 0  9991","SITE":"AFETR"},{"OBJECT_NAME":"STARLINK-1861","DECAY_DATE":null,"EPHEMERIS_TYPE":"0","COUNTRY_CODE":"US","REV_AT_EPOCH":"12820","OBJECT_ID":"2020-088AC","SITE":"AFETR","TLE_LINE1":"1 47148U 20088AC  23076.44571384  .00021366  00000-0  14496-2 0  9990","PERIAPSIS":"546.304","ARG_OF_PERICENTER":"93.4187","RA_OF_ASC_NODE":"136.9331","EPOCH":"2023-03-17T10:41:49.675776","SEMIMAJOR_AXIS":"6925.401","ELEMENT_SET_NO":"999","BSTAR":"0.00144960000000","CENTER_NAME":"EARTH","ECCENTRICITY":"0.00013890","PERIOD":"95.593","CLASSIFICATION_TYPE":"U","MEAN_MOTION":"15.06382767","TIME_SYSTEM":"UTC","GP_ID":"228331190","LAUNCH_DATE":"2020-11-25","OBJECT_TYPE":"PAYLOAD","FILE":"3863408","RCS_SIZE":"LARGE","MEAN_ANOMALY":"266.6960","APOAPSIS":"548.228","REF_FRAME":"TEME","MEAN_MOTION_DOT":"0.00021366","MEAN_ELEMENT_THEORY":"SGP4","MEAN_MOTION_DDOT":"0.0000000000000","NORAD_CAT_ID":"47148","TLE_LINE2":"2 47148  53.0537 136.9331 0001389  93.4187 266.6960 15.06382767128201","INCLINATION":"53.0537"},{"RA_OF_ASC_NODE":"146.8078","ARG_OF_PERICENTER":"84.9323","PERIAPSIS":"546.430","ELEMENT_SET_NO":"999","SEMIMAJOR_AXIS":"6925.425","EPOCH":"2023-03-17T11:22:54.322176","DECAY_DATE":null,"COUNTRY_CODE":"US","EPHEMERIS_TYPE":"0","OBJECT_NAME":"STARLINK-1862","TLE_LINE1":"1 47149U 20088AD  23076.47423984  .00002231  00000-0  16870-3 0  9995","SITE":"AFETR","OBJECT_ID":"2020-088AD","REV_AT_EPOCH":"12855","APOAPSIS":"548.151","MEAN_ANOMALY":"275.1807","RCS_SIZE":"LARGE","INCLINATION":"53.0526","TLE_LINE2":"2 47149  53.0526 146.8078 0001242  84.9323 275.1807 15.06374935128554","NORAD_CAT_ID":"47149","MEAN_ELEMENT_THEORY":"SGP4","MEAN_MOTION_DDOT":"0.0000000000000","MEAN_MOTION_DOT":"0.00002231","REF_FRAME":"TEME","LAUNCH_DATE":"2020-11-25","GP_ID":"228322076","CLASSIFICATION_TYPE":"U","TIME_SYSTEM":"UTC","MEAN_MOTION":"15.06374935","PERIOD":"95.594","ECCENTRICITY":"0.00012420","CENTER_NAME":"EARTH","BSTAR":"0.00016870000000","FILE":"3863278","OBJECT_TYPE":"PAYLOAD"},{"BSTAR":"0.00154390000000","PERIOD":"95.592","ECCENTRICITY":"0.00010680","CENTER_NAME":"EARTH","CLASSIFICATION_TYPE":"U","TIME_SYSTEM":"UTC","MEAN_MOTION":"15.06407088","LAUNCH_DATE":"2020-11-25","GP_ID":"228353375","OBJECT_TYPE":"PAYLOAD","FILE":"3863544","RCS_SIZE":"LARGE","MEAN_ANOMALY":"245.9688","APOAPSIS":"547.931","MEAN_MOTION_DOT":"0.00022794","REF_FRAME":"TEME","MEAN_MOTION_DDOT":"0.0000000000000","MEAN_ELEMENT_THEORY":"SGP4","NORAD_CAT_ID":"47150","TLE_LINE2":"2 47150  53.0534 135.0497 0001068 114.1412 245.9688 15.06407088128021","INCLINATION":"53.0534","OBJECT_NAME":"STARLINK-1863","COUNTRY_CODE":"US","DECAY_DATE":null,"EPHEMERIS_TYPE":"0","OBJECT_ID":"2020-088AE","REV_AT_EPOCH":"12802","SITE":"AFETR","TLE_LINE1":"1 47150U 20088AE  23076.86589577  .00022794  00000-0  15439-2 0  9996","PERIAPSIS":"546.452","RA_OF_ASC_NODE":"135.0497","ARG_OF_PERICENTER":"114.1412","EPOCH":"2023-03-17T20:46:53.394528","SEMIMAJOR_AXIS":"6925.327","ELEMENT_SET_NO":"999"},{"MEAN_MOTION_DDOT":"0.0000000000000","MEAN_ELEMENT_THEORY":"SGP4","REF_FRAME":"TEME","MEAN_MOTION_DOT":"0.00027588","INCLINATION":"53.0521","TLE_LINE2":"2 47151  53.0521 146.8407 0001402  95.0525 265.0624 15.06365220127813","NORAD_CAT_ID":"47151","RCS_SIZE":"LARGE","APOAPSIS":"548.291","MEAN_ANOMALY":"265.0624","OBJECT_TYPE":"PAYLOAD","FILE":"3863278","CENTER_NAME":"EARTH","PERIOD":"95.594","ECCENTRICITY":"0.00014020","BSTAR":"0.00186550000000","LAUNCH_DATE":"2020-11-25","GP_ID":"228321075","MEAN_MOTION":"15.06365220","CLASSIFICATION_TYPE":"U","TIME_SYSTEM":"UTC","EPOCH":"2023-03-17T11:12:20.320704","ELEMENT_SET_NO":"999","SEMIMAJOR_AXIS":"6925.455","PERIAPSIS":"546.349","ARG_OF_PERICENTER":"95.0525","RA_OF_ASC_NODE":"146.8407","REV_AT_EPOCH":"12781","OBJECT_ID":"2020-088AF","TLE_LINE1":"1 47151U 20088AF  23076.46690186  .00027588  00000-0  18655-2 0  9991","SITE":"AFETR","DECAY_DATE":null,"COUNTRY_CODE":"US","EPHEMERIS_TYPE":"0","OBJECT_NAME":"STARLINK-1864"},{"REF_FRAME":"TEME","MEAN_MOTION_DOT":"0.00025467","MEAN_MOTION_DDOT":"0.0000000000000","MEAN_ELEMENT_THEORY":"SGP4","TLE_LINE2":"2 47152  53.0528 144.8170 0001299  91.4695 268.6443 15.06415145127885","NORAD_CAT_ID":"47152","INCLINATION":"53.0528","RCS_SIZE":"LARGE","MEAN_ANOMALY":"268.6443","APOAPSIS":"548.067","OBJECT_TYPE":"PAYLOAD","FILE":"3863544","BSTAR":"0.00172170000000","CENTER_NAME":"EARTH","ECCENTRICITY":"0.00012990","PERIOD":"95.591","CLASSIFICATION_TYPE":"U","MEAN_MOTION":"15.06415145","TIME_SYSTEM":"UTC","GP_ID":"228351876","LAUNCH_DATE":"2020-11-25","EPOCH":"2023-03-17T21:58:31.998432","SEMIMAJOR_AXIS":"6925.302","ELEMENT_SET_NO":"999","PERIAPSIS":"546.268","ARG_OF_PERICENTER":"91.4695","RA_OF_ASC_NODE":"144.8170","REV_AT_EPOCH":"12788","OBJECT_ID":"2020-088AG","SITE":"AFETR","TLE_LINE1":"1 47152U 20088AG  23076.91564813  .00025467  00000-0  17217-2 0  9996","OBJECT_NAME":"STARLINK-1866","COUNTRY_CODE":"US","DECAY_DATE":null,"EPHEMERIS_TYPE":"0"},{"REV_AT_EPOCH":"12781","OBJECT_ID":"2020-088AH","SITE":"AFETR","TLE_LINE1":"1 47153U 20088AH  23076.91431291  .00028663  00000-0  19351-2 0  9992","OBJECT_NAME":"STARLINK-1867","EPHEMERIS_TYPE":"0","DECAY_DATE":null,"COUNTRY_CODE":"US","EPOCH":"2023-03-17T21:56:36.635424","SEMIMAJOR_AXIS":"6925.336","ELEMENT_SET_NO":"999","PERIAPSIS":"546.201","ARG_OF_PERICENTER":"87.8044","RA_OF_ASC_NODE":"150.0730","OBJECT_TYPE":"PAYLOAD","FILE":"3863544","BSTAR":"0.00193510000000","CENTER_NAME":"EARTH","ECCENTRICITY":"0.00014440","PERIOD":"95.592","TIME_SYSTEM":"UTC","CLASSIFICATION_TYPE":"U","MEAN_MOTION":"15.06404045","LAUNCH_DATE":"2020-11-25","GP_ID":"228352625","REF_FRAME":"TEME","MEAN_MOTION_DOT":"0.00028663","MEAN_MOTION_DDOT":"0.0000000000000","MEAN_ELEMENT_THEORY":"SGP4","TLE_LINE2":"2 47153  53.0516 150.0730 0001444  87.8044 272.3110 15.06404045127816","NORAD_CAT_ID":"47153","INCLINATION":"53.0516","RCS_SIZE":"LARGE","MEAN_ANOMALY":"272.3110","APOAPSIS":"548.201"},{"EPOCH":"2023-03-17T21:18:43.599168","ELEMENT_SET_NO":"999","SEMIMAJOR_AXIS":"6925.348","PERIAPSIS":"546.035","ARG_OF_PERICENTER":"85.0569","RA_OF_ASC_NODE":"134.9470","REV_AT_EPOCH":"12802","OBJECT_ID":"2020-088AJ","TLE_LINE1":"1 47154U 20088AJ  23076.88800462 -.00006376  00000-0 -40951-3 0  9999","SITE":"AFETR","DECAY_DATE":null,"EPHEMERIS_TYPE":"0","COUNTRY_CODE":"US","OBJECT_NAME":"STARLINK-1868","MEAN_MOTION_DDOT":"0.0000000000000","MEAN_ELEMENT_THEORY":"SGP4","REF_FRAME":"TEME","MEAN_MOTION_DOT":"-0.00006376","INCLINATION":"53.0547","NORAD_CAT_ID":"47154","TLE_LINE2":"2 47154  53.0547 134.9470 0001701  85.0569 275.0614 15.06400053128029","RCS_SIZE":"LARGE","APOAPSIS":"548.391","MEAN_ANOMALY":"275.0614","OBJECT_TYPE":"PAYLOAD","FILE":"3863544","CENTER_NAME":"EARTH","PERIOD":"95.592","ECCENTRICITY":"0.00017010","BSTAR":"-0.00040951000000","GP_ID":"228352877","LAUNCH_DATE":"2020-11-25","MEAN_MOTION":"15.06400053","CLASSIFICATION_TYPE":"U","TIME_SYSTEM":"UTC"},{"INCLINATION":"53.0527","TLE_LINE2":"2 47155  53.0527 154.7894 0001205  85.9509 274.1618 15.06365323127742","NORAD_CAT_ID":"47155","MEAN_MOTION_DDOT":"0.0000000000000","MEAN_ELEMENT_THEORY":"SGP4","MEAN_MOTION_DOT":"-0.00009779","REF_FRAME":"TEME","APOAPSIS":"548.154","MEAN_ANOMALY":"274.1618","RCS_SIZE":"LARGE","FILE":"3863544","OBJECT_TYPE":"PAYLOAD","GP_ID":"228353127","LAUNCH_DATE":"2020-11-25","MEAN_MOTION":"15.06365323","CLASSIFICATION_TYPE":"U","TIME_SYSTEM":"UTC","ECCENTRICITY":"0.00012050","PERIOD":"95.594","CENTER_NAME":"EARTH","BSTAR":"-0.00063908000000","ELEMENT_SET_NO":"999","SEMIMAJOR_AXIS":"6925.455","EPOCH":"2023-03-17T22:09:05.683680","RA_OF_ASC_NODE":"154.7894","ARG_OF_PERICENTER":"85.9509","PERIAPSIS":"546.485","TLE_LINE1":"1 47155U 20088AK  23076.92298245 -.00009779  00000-0 -63908-3 0  9992","SITE":"AFETR","OBJECT_ID":"2020-088AK","REV_AT_EPOCH":"12774","DECAY_DATE":null,"EPHEMERIS_TYPE":"0","COUNTRY_CODE":"US","OBJECT_NAME":"STARLINK-1869"}];
